{"format":"tle-catalog-v1","generatedAt":"2026-06-25T16:01:17.978Z","count":6895,"entries":[{"name":"CZ-7A R/B","line1":"1 69675U 26144B   26174.32446913  .00084894 -16321-6  12531-3 0  9990","line2":"2 69675  19.5055 324.8183 7251415 178.8563 185.1182  2.38779558    24"},{"name":"HOKUSHIN-1","line1":"1 69648U 98067YH  26176.24964160  .00029203  00000+0  51473-3 0  9995","line2":"2 69648  51.6326 260.1559 0006272 250.4740 109.5572 15.50150778   902"},{"name":"TJS-26A","line1":"1 69674U 26144A   26174.32980920  .00009630 -16661-6  31526-3 0  9997","line2":"2 69674  19.5157 324.7456 7314561 179.7910 181.1077  2.27958502    21"}]}