OBJECT_NAME,OBJECT_ID,EPOCH,MEAN_MOTION,ECCENTRICITY,INCLINATION,RA_OF_ASC_NODE,ARG_OF_PERICENTER,MEAN_ANOMALY,EPHEMERIS_TYPE,CLASSIFICATION_TYPE,NORAD_CAT_ID,ELEMENT_SET_NO,REV_AT_EPOCH,BSTAR,MEAN_MOTION_DOT,MEAN_MOTION_DDOT
HOKUSHIN-1,1998-067YH,2026-06-25T05:59:29.034240,15.50150778,.00062722,51.6326,260.1559,250.4740,109.5572,0,U,69648,999,90,.51473191E-3,.29203E-3,0
TJS-26A,2026-144A,2026-06-23T07:54:55.514880,2.27958502,.73145613,19.5157,324.7456,179.7910,181.1077,0,U,69674,999,2,.31526459E-3,.963E-4,-.166614E-6
CZ-7A R/B,2026-144B,2026-06-23T07:47:14.132832,2.38779558,.7251415,19.5055,324.8183,178.8563,185.1182,0,U,69675,999,2,.12530754E-3,.84894E-3,-.163211E-6
